NORAD_CAT_ID,OBJECT_NAME,OBJECT_TYPE,EPOCH,MEAN_MOTION,ECCENTRICITY,INCLINATION,RA_OF_ASC_NODE,ARG_OF_PERICENTER,MEAN_ANOMALY,BSTAR,MEAN_MOTION_DOT,MEAN_MOTION_DDOT,TLE_LINE0,TLE_LINE1,TLE_LINE2,SEMIMAJOR_AXIS,PERIOD,APOGEE,PERIGEE,DECAYED
52866.0,STARLINK-4272,PAYLOAD,2024-05-01 21:18:33,15.08855991,0.0001024,53.2139,182.4004,93.2452,266.8658,9.5284e-05,1.23e-05,0.0,0 STARLINK-4272,1 52866U 22062AN  24122.88789171  .00001230  00000-0  95284-4 0  9997,2 52866  53.2139 182.4004 0001024  93.2452 266.8658 15.08855991103751,6917.832,95.437,540.405,538.988,0.0
52866.0,STARLINK-4272,PAYLOAD,2024-05-02 13:12:25,15.08848957,0.000147,53.2169,179.4263,108.8806,251.2345,-3.0308e-05,-7.7e-06,0.0,0 STARLINK-4272,1 52866U 22062AN  24123.55029768 -.00000770  00000-0 -30308-4 0  9997,2 52866  53.2169 179.4263 0001470 108.8806 251.2345 15.08848957104349,6917.853,95.437,540.735,538.701,0.0
52866.0,STARLINK-4272,PAYLOAD,2024-05-03 13:03:12,15.08843247,0.000139,53.2164,174.9664,94.9039,265.2112,0.00013037,1.788e-05,0.0,0 STARLINK-4272,1 52866U 22062AN  24124.54388926  .00001788  00000-0  13037-3 0  9998,2 52866  53.2164 174.9664 0001390  94.9039 265.2112 15.08843247104000,6917.87,95.437,540.697,538.774,0.0
52866.0,STARLINK-4272,PAYLOAD,2024-05-03 21:00:08,15.08831245,0.0001536,53.2162,173.4799,98.7908,261.3258,2.4136e-05,9.6e-07,0.0,0 STARLINK-4272,1 52866U 22062AN  24124.87510095  .00000096  00000-0  24136-4 0  9992,2 52866  53.2162 173.4799 0001536  98.7908 261.3258 15.08831245104058,6917.907,95.438,540.835,538.71,0.0
52866.0,STARLINK-4272,PAYLOAD,2024-05-04 03:21:41,15.0883044,0.0001768,53.2163,172.2906,97.1888,262.9305,1.8164e-05,1e-08,0.0,0 STARLINK-4272,1 52866U 22062AN  24125.14006408  .00000001  00000-0  18164-4 0  9991,2 52866  53.2163 172.2906 0001768  97.1888 262.9305 15.08830440104587,6917.91,95.438,540.998,538.552,0.0
52866.0,STARLINK-4272,PAYLOAD,2024-05-04 09:43:14,15.08823379,0.0001307,53.2154,171.1027,95.5367,264.5775,-2.8694e-05,-7.44e-06,0.0,0 STARLINK-4272,1 52866U 22062AN  24125.40503181 -.00000744  00000-0 -28694-4 0  9995,2 52866  53.2154 171.1027 0001307  95.5367 264.5775 15.08823379104629,6917.931,95.439,540.7,538.892,0.0
52866.0,STARLINK-4272,PAYLOAD,2024-05-05 03:12:29,15.08830924,0.0001258,53.2156,167.8305,97.8864,262.227,-2.1079e-06,-3.21e-06,0.0,0 STARLINK-4272,1 52866U 22062AN  24126.13367139 -.00000321  00000-0 -21079-5 0  9999,2 52866  53.2156 167.8305 0001258  97.8864 262.2270 15.08830924104735,6917.908,95.438,540.643,538.903,0.0
52866.0,STARLINK-4272,PAYLOAD,2024-05-05 07:58:38,15.08836391,0.0001458,53.217,166.9403,98.8786,261.2371,4.1494e-05,3.72e-06,0.0,0 STARLINK-4272,1 52866U 22062AN  24126.33238886  .00000372  00000-0  41494-4 0  9993,2 52866  53.2170 166.9403 0001458  98.8786 261.2371 15.08836391104270,6917.891,95.438,540.765,538.748,0.0
52866.0,STARLINK-4272,PAYLOAD,2024-05-05 19:06:19,15.08843623,0.0001243,53.2163,164.8577,95.7528,264.3606,6.1802e-05,6.96e-06,0.0,0 STARLINK-4272,1 52866U 22062AN  24126.79606456  .00000696  00000-0  61802-4 0  9999,2 52866  53.2163 164.8577 0001243  95.7528 264.3606 15.08843623104836,6917.869,95.437,540.594,538.874,0.0
52866.0,STARLINK-4272,PAYLOAD,2024-05-06 09:24:47,15.08846706,0.0001259,53.2159,162.1824,98.7232,261.3903,0.00036812,5.577e-05,0.0,0 STARLINK-4272,1 52866U 22062AN  24127.39222192  .00005577  00000-0  36812-3 0  9992,2 52866  53.2159 162.1824 0001259  98.7232 261.3903 15.08846706104437,6917.86,95.437,540.596,538.854,0.0
52866.0,STARLINK-4272,PAYLOAD,2024-05-06 18:57:08,15.08823265,0.0001327,53.2147,160.3988,90.9149,269.1995,-4.0917e-05,-9.39e-06,0.0,0 STARLINK-4272,1 52866U 22062AN  24127.78968160 -.00000939  00000-0 -40917-4 0  9998,2 52866  53.2147 160.3988 0001327  90.9149 269.1995 15.08823265104984,6917.932,95.439,540.715,538.879,0.0
52866.0,STARLINK-4272,PAYLOAD,2024-05-07 12:26:22,15.08835013,0.0001259,53.2146,157.127,91.6992,268.4144,0.00011982,1.619e-05,0.0,0 STARLINK-4272,1 52866U 22062AN  24128.51832164  .00001619  00000-0  11982-3 0  9997,2 52866  53.2146 157.1270 0001259  91.6992 268.4144 15.08835013105094,6917.896,95.438,540.632,538.89,0.0
52866.0,STARLINK-4272,PAYLOAD,2024-05-08 10:41:47,15.08849997,0.00012,53.2132,152.9634,89.0907,271.0222,0.00081305,0.00012679,0.0,0 STARLINK-4272,1 52866U 22062AN  24129.44568359  .00012679  00000-0  81305-3 0  9996,2 52866  53.2132 152.9634 0001200  89.0907 271.0222 15.08849997104743,6917.85,95.437,540.545,538.885,0.0
52866.0,STARLINK-4272,PAYLOAD,2024-05-08 18:38:42,15.08860464,0.0001176,53.213,151.4764,87.4727,272.64,0.00065718,0.00010192,0.0,0 STARLINK-4272,1 52866U 22062AN  24129.77687813  .00010192  00000-0  65718-3 0  9997,2 52866  53.2130 151.4764 0001176  87.4727 272.6400 15.08860464105280,6917.818,95.436,540.496,538.869,0.0
52866.0,STARLINK-4272,PAYLOAD,2024-05-09 10:32:32,15.0887261,0.0001235,53.2136,148.5027,85.6945,274.4188,0.00069948,0.00010872,0.0,0 STARLINK-4272,1 52866U 22062AN  24130.43926674  .00010872  00000-0  69948-3 0  9997,2 52866  53.2136 148.5027 0001235  85.6945 274.4188 15.08872610104898,6917.781,95.435,540.5,538.791,0.0
52866.0,STARLINK-4272,PAYLOAD,2024-05-10 00:51:00,15.08856815,9.3e-05,53.2139,145.826,78.464,281.6457,0.00029419,4.399e-05,0.0,0 STARLINK-4272,1 52866U 22062AN  24131.03542438  .00004399  00000-0  29419-3 0  9992,2 52866  53.2139 145.8260 0000930  78.4640 281.6457 15.08856815105476,6917.829,95.436,540.337,539.051,0.0
52866.0,STARLINK-4272,PAYLOAD,2024-05-10 10:23:19,15.08858662,0.0001024,53.214,144.0415,83.9149,276.196,0.0003632,5.5e-05,0.0,0 STARLINK-4272,1 52866U 22062AN  24131.43286238  .00005500  00000-0  36320-3 0  9993,2 52866  53.2140 144.0415 0001024  83.9149 276.1960 15.08858662105044,6917.823,95.436,540.397,538.98,0.0
52866.0,STARLINK-4272,PAYLOAD,2024-05-10 18:20:15,15.08847056,0.0001098,53.2134,142.5541,86.3896,273.7221,0.00013281,1.827e-05,0.0,0 STARLINK-4272,1 52866U 22062AN  24131.76406395  .00001827  00000-0  13281-3 0  9996,2 52866  53.2134 142.5541 0001098  86.3896 273.7221 15.08847056105584,6917.859,95.437,540.483,538.964,0.0
52866.0,STARLINK-4272,PAYLOAD,2024-05-11 07:03:19,15.08852393,0.0001554,53.2145,140.174,101.0337,259.083,0.00013227,1.818e-05,0.0,0 STARLINK-4272,1 52866U 22062AN  24132.29398016  .00001818  00000-0  13227-3 0  9995,2 52866  53.2145 140.1740 0001554 101.0337 259.0830 15.08852393105171,6917.843,95.437,540.783,538.632,0.0
52866.0,STARLINK-4272,PAYLOAD,2024-05-12 05:18:43,15.08857949,0.0001539,53.2155,136.0103,102.5885,257.528,0.00033648,5.074e-05,0.0,0 STARLINK-4272,1 52866U 22062AN  24133.22133405  .00005074  00000-0  33648-3 0  9995,2 52866  53.2155 136.0103 0001539 102.5885 257.5280 15.08857949105800,6917.826,95.436,540.755,538.626,0.0
52866.0,STARLINK-4272,PAYLOAD,2024-05-12 06:54:06,15.08855248,0.0001512,53.2151,135.7136,101.2088,258.9075,0.00035048,5.297e-05,0.0,0 STARLINK-4272,1 52866U 22062AN  24133.28757482  .00005297  00000-0  35048-3 0  9991,2 52866  53.2151 135.7136 0001512 101.2088 258.9075 15.08855248105324,6917.834,95.437,540.745,538.653,0.0
52866.0,STARLINK-4272,PAYLOAD,2024-05-13 05:09:32,15.08791325,0.0001267,53.2163,131.5512,92.6374,267.4763,-0.0010095,-0.00016297,0.0,0 STARLINK-4272,1 52866U 22062AN  24134.21495865 -.00016297  00000-0 -10095-2 0  9997,2 52866  53.2163 131.5512 0001267  92.6374 267.4763 15.08791325105950,6918.029,95.441,540.771,539.018,0.0
52866.0,STARLINK-4272,PAYLOAD,2024-05-13 06:44:56,15.08784728,0.0001321,53.2164,131.2551,80.069,280.0451,-0.00098888,-0.00015967,0.0,0 STARLINK-4272,1 52866U 22062AN  24134.28120615 -.00015967  00000-0 -98888-3 0  9992,2 52866  53.2164 131.2551 0001321  80.0690 280.0451 15.08784728105475,6918.049,95.441,540.828,539.0,0.0
52866.0,STARLINK-4272,PAYLOAD,2024-05-13 16:17:14,15.08823974,0.0001514,53.2163,129.4721,101.6016,258.5146,-7.6098e-05,-1.498e-05,0.0,0 STARLINK-4272,1 52866U 22062AN  24134.67863800 -.00001498  00000-0 -76098-4 0  9999,2 52866  53.2163 129.4721 0001514 101.6016 258.5146 15.08823974106028,6917.929,95.439,540.842,538.747,0.0
52866.0,STARLINK-4272,PAYLOAD,2024-05-13 22:38:46,15.08831379,0.000137,53.216,128.2804,98.9798,261.1349,-1.5832e-05,-5.4e-06,0.0,0 STARLINK-4272,1 52866U 22062AN  24134.94359853 -.00000540  00000-0 -15832-4 0  9993,2 52866  53.2160 128.2804 0001370  98.9798 261.1349 15.08831379105571,6917.907,95.438,540.719,538.824,0.0
52866.0,STARLINK-4272,PAYLOAD,2024-05-14 05:00:19,15.08836826,0.0001299,53.2163,127.0917,94.1315,265.9825,3.1936e-05,2.2e-06,0.0,0 STARLINK-4272,1 52866U 22062AN  24135.20855540  .00000220  00000-0  31936-4 0  9993,2 52866  53.2163 127.0917 0001299  94.1315 265.9825 15.08836826106102,6917.89,95.438,540.654,538.856,0.0
52866.0,STARLINK-4272,PAYLOAD,2024-05-14 06:35:42,15.08838263,0.0001339,53.2159,126.7946,99.1082,261.0062,5.1613e-05,5.34e-06,0.0,0 STARLINK-4272,1 52866U 22062AN  24135.27479409  .00000534  00000-0  51613-4 0  9998,2 52866  53.2159 126.7946 0001339  99.1082 261.0062 15.08838263105629,6917.886,95.438,540.677,538.824,0.0
52866.0,STARLINK-4272,PAYLOAD,2024-05-14 16:08:00,15.08843089,0.0001311,53.2162,125.0101,96.3493,263.7648,9.0401e-05,1.151e-05,0.0,0 STARLINK-4272,1 52866U 22062AN  24135.67223170  .00001151  00000-0  90401-4 0  9998,2 52866  53.2162 125.0101 0001311  96.3493 263.7648 15.08843089105680,6917.871,95.437,540.643,538.829,0.0
52866.0,STARLINK-4272,PAYLOAD,2024-05-15 04:51:06,15.08824003,0.000123,53.2159,122.6311,87.053,273.0603,0.00062114,9.607e-05,0.0,0 STARLINK-4272,1 52866U 22062AN  24136.20216201  .00009607  00000-0  62114-3 0  9998,2 52866  53.2159 122.6311 0001230  87.0530 273.0603 15.08824003106255,6917.929,95.439,540.645,538.943,0.0
52866.0,STARLINK-4272,PAYLOAD,2024-05-15 08:01:52,15.08845465,0.0001299,53.2155,122.0368,83.7123,276.4017,0.00073047,0.00011358,0.0,0 STARLINK-4272,1 52866U 22062AN  24136.33464027  .00011358  00000-0  73047-3 0  9996,2 52866  53.2155 122.0368 0001299  83.7123 276.4017 15.08845465106276,6917.864,95.437,540.627,538.83,0.0
